[{"OBJECT_NAME":"ION SCV-015","OBJECT_ID":"2023-185H","EPOCH":"2026-03-09T22:36:51.209568","MEAN_MOTION":15.3163624,"ECCENTRICITY":0.00109059,"INCLINATION":97.5772,"RA_OF_ASC_NODE":155.3582,"ARG_OF_PERICENTER":92.3805,"MEAN_ANOMALY":267.8685,"EPHEMERIS_TYPE":0,"CLASSIFICATION_TYPE":"U","NORAD_CAT_ID":58469,"ELEMENT_SET_NO":999,"REV_AT_EPOCH":12588,"BSTAR":0.00030895808,"MEAN_MOTION_DOT":9.376e-5,"MEAN_MOTION_DDOT":0},{"OBJECT_NAME":"STARLINK-31953","OBJECT_ID":"2024-100P","EPOCH":"2026-03-09T13:00:23.450976","MEAN_MOTION":15.27573178,"ECCENTRICITY":0.00012849,"INCLINATION":43.0009,"RA_OF_ASC_NODE":122.8244,"ARG_OF_PERICENTER":216.3366,"MEAN_ANOMALY":143.7398,"EPHEMERIS_TYPE":0,"CLASSIFICATION_TYPE":"U","NORAD_CAT_ID":59898,"ELEMENT_SET_NO":999,"REV_AT_EPOCH":10117,"BSTAR":-7.8925757e-5,"MEAN_MOTION_DOT":-2.433e-5,"MEAN_MOTION_DDOT":0}]
